ION SCV-014             
1 62630U 25009X   26068.71776957  .00001812  00000+0  13229-3 0  9995
2 62630  97.4923 144.8636 0006450 112.6479 247.5430 15.04884649 63025
STARLINK-35077          
1 65529U 25200K   26068.72127547  .00003697  00000+0  26033-3 0  9994
2 65529  97.6020 139.7977 0001001 115.6685 244.4645 15.05645306 29139
